INNOSAT 3 (RS92S0)      
1 64894U 25155U   26167.85890939  .00033340  00000+0  73552-3 0  9999
2 64894  97.4488 139.3470 0006474 152.0709 208.0888 15.43808107 80914
KNACKSAT-2              
1 67683U 98067XZ  26167.64582772  .00039403  00000+0  48230-3 0  9991
2 67683  51.6312 297.1999 0009189 212.7793 147.2631 15.59934910 20196
